start=new Date('2023-04-08T00:00:00.000Z').valueOf();
sats=[{"MEAN_MOTION_DOT":"0.00001686","FILE":"3882626","APOAPSIS":"540.567","MEAN_MOTION_DDOT":"0.0000000000000","NORAD_CAT_ID":"51150","EPOCH":"2023-04-07T05:46:04.661472","PERIAPSIS":"538.921","INCLINATION":"53.2165","MEAN_ANOMALY":"252.1773","GP_ID":"229684233","CENTER_NAME":"EARTH","SITE":"AFETR","DECAY_DATE":null,"ECCENTRICITY":"0.00011890","RCS_SIZE":"LARGE","LAUNCH_DATE":"2022-01-19","COUNTRY_CODE":"US","OBJECT_ID":"2022-005AY","SEMIMAJOR_AXIS":"6917.879","RA_OF_ASC_NODE":"51.0926","CLASSIFICATION_TYPE":"U","OBJECT_NAME":"STARLINK-3357","MEAN_ELEMENT_THEORY":"SGP4","ARG_OF_PERICENTER":"107.9349","TLE_LINE2":"2 51150  53.2165  51.0926 0001189 107.9349 252.1773 15.08840447 67596","BSTAR":"0.00012399000000","TIME_SYSTEM":"UTC","OBJECT_TYPE":"PAYLOAD","REF_FRAME":"TEME","MEAN_MOTION":"15.08840447","PERIOD":"95.438","EPHEMERIS_TYPE":"0","TLE_LINE1":"1 51150U 22005AY  23097.24033173  .00001686  00000-0  12399-3 0  9993","ELEMENT_SET_NO":"999","REV_AT_EPOCH":"6759"},{"TLE_LINE2":"2 51151  53.2172  60.3368 0001247  99.1799 260.9334 15.08854267 67476","ARG_OF_PERICENTER":"99.1799","BSTAR":"0.00051418000000","REV_AT_EPOCH":"6747","TLE_LINE1":"1 51151U 22005AZ  23097.40772958  .00007908  00000-0  51418-3 0  9991","EPHEMERIS_TYPE":"0","ELEMENT_SET_NO":"999","PERIOD":"95.437","REF_FRAME":"TEME","MEAN_MOTION":"15.08854267","OBJECT_TYPE":"PAYLOAD","TIME_SYSTEM":"UTC","GP_ID":"229684483","CENTER_NAME":"EARTH","MEAN_ANOMALY":"260.9334","PERIAPSIS":"538.839","INCLINATION":"53.2172","NORAD_CAT_ID":"51151","EPOCH":"2023-04-07T09:47:07.835712","FILE":"3882626","MEAN_MOTION_DOT":"0.00007908","MEAN_MOTION_DDOT":"0.0000000000000","APOAPSIS":"540.564","OBJECT_NAME":"STARLINK-3361","MEAN_ELEMENT_THEORY":"SGP4","CLASSIFICATION_TYPE":"U","RA_OF_ASC_NODE":"60.3368","COUNTRY_CODE":"US","LAUNCH_DATE":"2022-01-19","SEMIMAJOR_AXIS":"6917.837","OBJECT_ID":"2022-005AZ","ECCENTRICITY":"0.00012470","DECAY_DATE":null,"SITE":"AFETR","RCS_SIZE":"LARGE"},{"SEMIMAJOR_AXIS":"6917.878","OBJECT_ID":"2022-005BA","COUNTRY_CODE":"US","LAUNCH_DATE":"2022-01-19","RCS_SIZE":"LARGE","DECAY_DATE":null,"ECCENTRICITY":"0.00013050","SITE":"AFETR","MEAN_ELEMENT_THEORY":"SGP4","OBJECT_NAME":"STARLINK-3364","CLASSIFICATION_TYPE":"U","RA_OF_ASC_NODE":"60.6131","EPOCH":"2023-04-07T08:17:03.183072","NORAD_CAT_ID":"51152","MEAN_MOTION_DDOT":"0.0000000000000","APOAPSIS":"540.646","FILE":"3882626","MEAN_MOTION_DOT":"0.00001042","GP_ID":"229684733","CENTER_NAME":"EARTH","PERIAPSIS":"538.841","MEAN_ANOMALY":"274.7205","INCLINATION":"53.2181","OBJECT_TYPE":"PAYLOAD","TIME_SYSTEM":"UTC","REV_AT_EPOCH":"6746","TLE_LINE1":"1 51152U 22005BA  23097.34517573  .00001042  00000-0  83539-4 0  9998","ELEMENT_SET_NO":"999","EPHEMERIS_TYPE":"0","PERIOD":"95.438","MEAN_MOTION":"15.08840627","REF_FRAME":"TEME","BSTAR":"0.00008353900000","TLE_LINE2":"2 51152  53.2181  60.6131 0001305  85.3936 274.7205 15.08840627 67467","ARG_OF_PERICENTER":"85.3936"},{"RCS_SIZE":"LARGE","DECAY_DATE":null,"ECCENTRICITY":"0.00010990","SITE":"AFETR","OBJECT_ID":"2022-010E","SEMIMAJOR_AXIS":"6917.857","LAUNCH_DATE":"2022-02-03","COUNTRY_CODE":"US","RA_OF_ASC_NODE":"31.1438","CLASSIFICATION_TYPE":"U","MEAN_ELEMENT_THEORY":"SGP4","OBJECT_NAME":"STARLINK-3167","APOAPSIS":"540.482","MEAN_MOTION_DDOT":"0.0000000000000","MEAN_MOTION_DOT":"0.00003817","FILE":"3882626","EPOCH":"2023-04-07T05:26:08.700576","NORAD_CAT_ID":"51460","PERIAPSIS":"538.962","MEAN_ANOMALY":"256.9240","INCLINATION":"53.2175","CENTER_NAME":"EARTH","GP_ID":"229684487","TIME_SYSTEM":"UTC","OBJECT_TYPE":"PAYLOAD","MEAN_MOTION":"15.08847596","REF_FRAME":"TEME","PERIOD":"95.437","EPHEMERIS_TYPE":"0","TLE_LINE1":"1 51460U 22010E   23097.22648959  .00003817  00000-0  25773-3 0  9993","ELEMENT_SET_NO":"999","REV_AT_EPOCH":"6567","BSTAR":"0.00025773000000","ARG_OF_PERICENTER":"103.1875","TLE_LINE2":"2 51460  53.2175  31.1438 0001099 103.1875 256.9240 15.08847596 65670"},{"BSTAR":"0.00015785000000","ARG_OF_PERICENTER":"87.4418","TLE_LINE2":"2 51461  53.2174  31.3601 0001085  87.4418 272.6698 15.08842996 66162","TIME_SYSTEM":"UTC","OBJECT_TYPE":"PAYLOAD","REF_FRAME":"TEME","MEAN_MOTION":"15.08842996","PERIOD":"95.437","TLE_LINE1":"1 51461U 22010F   23097.17865109  .00002225  00000-0  15785-3 0  9990","ELEMENT_SET_NO":"999","EPHEMERIS_TYPE":"0","REV_AT_EPOCH":"6616","APOAPSIS":"540.487","MEAN_MOTION_DDOT":"0.0000000000000","MEAN_MOTION_DOT":"0.00002225","FILE":"3882815","EPOCH":"2023-04-07T04:17:15.454176","NORAD_CAT_ID":"51461","PERIAPSIS":"538.986","MEAN_ANOMALY":"272.6698","INCLINATION":"53.2174","GP_ID":"229692706","CENTER_NAME":"EARTH","RCS_SIZE":"LARGE","SITE":"AFETR","DECAY_DATE":null,"ECCENTRICITY":"0.00010850","OBJECT_ID":"2022-010F","SEMIMAJOR_AXIS":"6917.871","LAUNCH_DATE":"2022-02-03","COUNTRY_CODE":"US","RA_OF_ASC_NODE":"31.3601","CLASSIFICATION_TYPE":"U","MEAN_ELEMENT_THEORY":"SGP4","OBJECT_NAME":"STARLINK-3181"},{"OBJECT_TYPE":"PAYLOAD","TIME_SYSTEM":"UTC","EPHEMERIS_TYPE":"0","TLE_LINE1":"1 51462U 22010G   23097.83833366  .00004594  00000-0  30652-3 0  9995","ELEMENT_SET_NO":"999","REV_AT_EPOCH":"6623","REF_FRAME":"TEME","MEAN_MOTION":"15.08838414","PERIOD":"95.438","BSTAR":"0.00030652000000","ARG_OF_PERICENTER":"89.3280","TLE_LINE2":"2 51462  53.2169  28.4101 0001262  89.3280 270.7857 15.08838414 66238","OBJECT_ID":"2022-010G","SEMIMAJOR_AXIS":"6917.885","LAUNCH_DATE":"2022-02-03","COUNTRY_CODE":"US","RCS_SIZE":"LARGE","SITE":"AFETR","DECAY_DATE":null,"ECCENTRICITY":"0.00012620","MEAN_ELEMENT_THEORY":"SGP4","OBJECT_NAME":"STARLINK-3166","RA_OF_ASC_NODE":"28.4101","CLASSIFICATION_TYPE":"U","EPOCH":"2023-04-07T20:07:12.028224","NORAD_CAT_ID":"51462","APOAPSIS":"540.623","MEAN_MOTION_DDOT":"0.0000000000000","MEAN_MOTION_DOT":"0.00004594","FILE":"3882743","CENTER_NAME":"EARTH","GP_ID":"229690856","PERIAPSIS":"538.877","INCLINATION":"53.2169","MEAN_ANOMALY":"270.7857"},{"GP_ID":"229683737","CENTER_NAME":"EARTH","PERIAPSIS":"539.106","MEAN_ANOMALY":"324.6778","INCLINATION":"53.2173","NORAD_CAT_ID":"51463","EPOCH":"2023-04-07T01:59:28.882752","FILE":"3882626","MEAN_MOTION_DOT":"0.00005069","MEAN_MOTION_DDOT":"0.0000000000000","APOAPSIS":"540.392","OBJECT_NAME":"STARLINK-3419","MEAN_ELEMENT_THEORY":"SGP4","CLASSIFICATION_TYPE":"U","RA_OF_ASC_NODE":"31.7935","COUNTRY_CODE":"US","LAUNCH_DATE":"2022-02-03","SEMIMAJOR_AXIS":"6917.884","OBJECT_ID":"2022-010H","DECAY_DATE":null,"SITE":"AFETR","ECCENTRICITY":"0.00009300","RCS_SIZE":"LARGE","TLE_LINE2":"2 51463  53.2173  31.7935 0000930  35.4275 324.6778 15.08838859 65348","ARG_OF_PERICENTER":"35.4275","BSTAR":"0.00033635000000","REV_AT_EPOCH":"6534","ELEMENT_SET_NO":"999","TLE_LINE1":"1 51463U 22010H   23097.08297318  .00005069  00000-0  33635-3 0  9996","EPHEMERIS_TYPE":"0","PERIOD":"95.438","REF_FRAME":"TEME","MEAN_MOTION":"15.08838859","OBJECT_TYPE":"PAYLOAD","TIME_SYSTEM":"UTC"},{"RCS_SIZE":"LARGE","ECCENTRICITY":"0.00011540","DECAY_DATE":null,"SITE":"AFETR","OBJECT_ID":"2022-010J","SEMIMAJOR_AXIS":"6917.859","LAUNCH_DATE":"2022-02-03","COUNTRY_CODE":"US","RA_OF_ASC_NODE":"31.1108","CLASSIFICATION_TYPE":"U","MEAN_ELEMENT_THEORY":"SGP4","OBJECT_NAME":"STARLINK-3189","APOAPSIS":"540.522","MEAN_MOTION_DDOT":"0.0000000000000","MEAN_MOTION_DOT":"0.00004342","FILE":"3882626","EPOCH":"2023-04-07T05:36:44.740224","NORAD_CAT_ID":"51464","PERIAPSIS":"538.926","MEAN_ANOMALY":"283.1415","INCLINATION":"53.2179","CENTER_NAME":"EARTH","GP_ID":"229683987","TIME_SYSTEM":"UTC","OBJECT_TYPE":"PAYLOAD","MEAN_MOTION":"15.08846960","REF_FRAME":"TEME","PERIOD":"95.437","TLE_LINE1":"1 51464U 22010J   23097.23385116  .00004342  00000-0  29066-3 0  9994","EPHEMERIS_TYPE":"0","ELEMENT_SET_NO":"999","REV_AT_EPOCH":"6617","BSTAR":"0.00029066000000","ARG_OF_PERICENTER":"76.9706","TLE_LINE2":"2 51464  53.2179  31.1108 0001154  76.9706 283.1415 15.08846960 66170"},{"GP_ID":"229685238","CENTER_NAME":"EARTH","PERIAPSIS":"538.890","INCLINATION":"53.2170","MEAN_ANOMALY":"271.8584","NORAD_CAT_ID":"51465","EPOCH":"2023-04-07T05:31:26.913504","FILE":"3882626","MEAN_MOTION_DOT":"0.00002753","MEAN_MOTION_DDOT":"0.0000000000000","APOAPSIS":"540.582","OBJECT_NAME":"STARLINK-3401","MEAN_ELEMENT_THEORY":"SGP4","CLASSIFICATION_TYPE":"U","RA_OF_ASC_NODE":"31.1293","COUNTRY_CODE":"US","LAUNCH_DATE":"2022-02-03","SEMIMAJOR_AXIS":"6917.871","OBJECT_ID":"2022-010K","DECAY_DATE":null,"ECCENTRICITY":"0.00012230","SITE":"AFETR","RCS_SIZE":"LARGE","TLE_LINE2":"2 51465  53.2170  31.1293 0001223  88.2548 271.8584 15.08843154 66177","ARG_OF_PERICENTER":"88.2548","BSTAR":"0.00019097000000","REV_AT_EPOCH":"6617","EPHEMERIS_TYPE":"0","TLE_LINE1":"1 51465U 22010K   23097.23017261  .00002753  00000-0  19097-3 0  9995","ELEMENT_SET_NO":"999","PERIOD":"95.437","REF_FRAME":"TEME","MEAN_MOTION":"15.08843154","OBJECT_TYPE":"PAYLOAD","TIME_SYSTEM":"UTC"},{"TLE_LINE2":"2 51467  53.2183  31.2104 0001312 101.7377 258.3763 15.08841169 65368","ARG_OF_PERICENTER":"101.7377","BSTAR":"0.00018391000000","REV_AT_EPOCH":"6536","EPHEMERIS_TYPE":"0","TLE_LINE1":"1 51467U 22010M   23097.21177562  .00002640  00000-0  18391-3 0  9997","ELEMENT_SET_NO":"999","PERIOD":"95.437","REF_FRAME":"TEME","MEAN_MOTION":"15.08841169","OBJECT_TYPE":"PAYLOAD","TIME_SYSTEM":"UTC","GP_ID":"229684984","CENTER_NAME":"EARTH","INCLINATION":"53.2183","PERIAPSIS":"538.834","MEAN_ANOMALY":"258.3763","NORAD_CAT_ID":"51467","EPOCH":"2023-04-07T05:04:57.413568","FILE":"3882626","MEAN_MOTION_DOT":"0.00002640","MEAN_MOTION_DDOT":"0.0000000000000","APOAPSIS":"540.649","OBJECT_NAME":"STARLINK-3178","MEAN_ELEMENT_THEORY":"SGP4","CLASSIFICATION_TYPE":"U","RA_OF_ASC_NODE":"31.2104","COUNTRY_CODE":"US","LAUNCH_DATE":"2022-02-03","SEMIMAJOR_AXIS":"6917.877","OBJECT_ID":"2022-010M","ECCENTRICITY":"0.00013120","DECAY_DATE":null,"SITE":"AFETR","RCS_SIZE":"LARGE"}];
